141P-B/Machholz,e,13.9866,153.6185,241.7752,3.055987,0.1844917,0.73582422,234.3238,06/03.0/2024,2000,g  9.0,4.0
# From MPC 37026
141P-D/Machholz,e,13.8347,153.2696,242.1336,3.066067,0.1835826,0.73701938,228.8462,06/03.0/2024,2000,g  9.0,4.0
# From MPEC 2015-R12
141P-E/Machholz,e,12.8152,246.1856,149.2667,3.012914,0.1884620,0.75023267,359.9529,09/19.0/1994,2000,g  9.0,4.0
# From MPEC 2015-R12
141P-F/Machholz,e,12.7898,246.1881,149.2374,3.010224,0.1887147,0.75000946,359.9630,09/19.0/1994,2000,g  9.0,4.0
# From MPEC 2015-R12
141P-G/Machholz,e,12.8259,246.3146,149.0784,3.005818,0.1891298,0.74964304,359.9802,09/19.0/1994,2000,g  9.0,4.0
# From MPC 95735
141P-H/Machholz,e,12.8431,246.0900,149.4500,3.008012,0.1889230,0.74682218,359.9270,08/24.0/2015,2000,g 18.5,4.0
# From MPEC 2022-SU8
141P-I/Machholz,e,13.9426,153.4971,241.8961,3.048080,0.1852101,0.73529164,234.1578,06/03.0/2024,2000,g 17.5,4.0
# From MPEC 2024-C04
142P/Ge-Wang,e,12.2490,175.9464,174.0761,5.002643,0.0880856,0.49650306,98.4525,06/03.0/2024,2000,g  8.5,6.0
# From MPEC 2023-XP6
143P/Kowal-Mrkos,e,5.2722,243.5017,319.9014,4.281741,0.1112432,0.43182430,253.2333,06/03.0/2024,2000,g 13.5,2.0
# From MPEC 2024-KD0
144P/Kushida,e,3.9319,242.9247,216.3247,3.831331,0.1314255,0.63488369,16.9836,06/03.0/2024,2000,g  8.5,8.0
# From MPC108598
145P/Shoemaker-Levy,e,11.2773,26.8112,10.3247,4.132864,0.1173079,0.54261358,288.7017,06/03.0/2024,2000,g 13.5,4.0
# From MPEC 2024-KD0
146P/Shoemaker-LINEAR,e,23.1230,53.3752,317.0769,4.025828,0.1220173,0.64738734,352.2592,06/03.0/2024,2000,g 15.0,4.0
# From MPC 75720
147P/Kushida-Muramatsu,e,2.2914,92.1164,348.1019,4.010063,0.1227375,0.21232494,21.9646,06/03.0/2024,2000,g 14.0,4.0
# From MPEC 2024-JU4
148P/Anderson-LINEAR,e,3.6587,89.1965,8.0557,3.619805,0.1431121,0.55027081,103.0531,06/03.0/2024,2000,g 16.0,2.0
# From MPEC 2023-J29
149P/Mueller,e,34.2361,143.8301,30.3740,4.125242,0.1176332,0.32432035,250.9014,06/03.0/2024,2000,g  8.0,8.0
# From MPEC 2024-KD0
150P/LONEOS,e,18.5474,272.0579,246.1153,3.870395,0.1294408,0.54898964,10.6834,06/03.0/2024,2000,g 13.5,4.0
# From MPEC 2022-K19
151P/Helin,e,4.7273,143.1586,216.1397,5.764309,0.0712169,0.57320038,224.6401,06/03.0/2024,2000,g 10.0,6.0
# From MPEC 2024-KD0
152P/Helin-Lawrence,e,9.8783,91.7913,164.3902,4.483755,0.1038105,0.30790568,90.3473,06/03.0/2024,2000,g 11.5,4.0
# From MPC 46101
153P/Ikeya-Zhang,e,28.4152,93.7223,34.3483,50.36139,0.0027578,0.99000553,0.0000,03/06.5691/2002,2000,g  9.0,4.0
# From MPEC 2022-K19
154P/Brewington,e,17.6336,343.0157,47.9579,4.795383,0.0938575,0.67615687,359.2072,06/03.0/2024,2000,g  2.5,12.0
# From MPEC 2022-YN2
155P/Shoemaker,e,6.4082,97.1585,14.5193,6.571006,0.0585135,0.72735542,97.1770,06/03.0/2024,2000,g 10.0,4.8
# From MPEC 2023-J29
156P/Russell-LINEAR,e,17.2687,35.3418,0.5084,3.462508,0.1529741,0.61512091,197.6861,06/03.0/2024,2000,g 15.5,2.0
# From MPEC 2024-D33
157P/Tritton,e,12.4213,287.5145,155.1295,3.547069,0.1475365,0.55684005,93.2482,06/03.0/2024,2000,g 10.0,4.0
# From MPEC 2022-VC5
157P-B/Tritton,e,12.4248,153.9121,287.1504,3.102366,0.1803701,0.49991076,114.3245,06/03.0/2024,2000,g 15.7,4.0
# From MPEC 2024-D33
158P/Kowal-LINEAR,e,7.3109,126.4681,217.2672,5.573219,0.0749109,0.11693553,55.2606,06/03.0/2024,2000,g  9.0,4.0
# From MPEC 2024-DC6
159P/LONEOS,e,23.4896,54.9389,4.6610,5.853546,0.0695946,0.38280788,153.1549,06/03.0/2024,2000,g 10.0,4.0
# From MPEC 2022-K19
160P/LINEAR,e,15.6022,333.3700,12.7898,3.778364,0.1341987,0.52544806,220.7186,06/03.0/2024,2000,g 15.5,2.0
# From MPC 75721
161P/Hartley-IRAS,e,95.8211,1.5550,47.0657,7.712954,0.0460122,0.83566803,318.2147,06/03.0/2024,2000,g  8.5,6.0
# From MPEC 2024-JU4
162P/SidingSpring,e,27.5620,30.8869,357.2196,3.092125,0.1812669,0.58310556,230.6383,06/03.0/2024,2000,g 12.0,4.0
# From MPEC 2021-S45
163P/NEAT,e,12.7198,102.0701,349.5823,3.762741,0.1350354,0.45327465,237.9411,06/03.0/2024,2000,g 14.5,4.0
# From MPEC 2021-F20
164P/Christensen,e,16.2729,88.3051,325.8945,3.652181,0.1412133,0.54124877,309.3932,06/03.0/2024,2000,g 11.0,4.0
# From MPC 75721
165P/LINEAR,e,15.9006,0.7768,125.7785,17.81784,0.0131045,0.61830253,114.8910,06/03.0/2024,2000,g 11.5,2.0
# From MPC 75722
166P/NEAT,e,15.3800,64.4295,321.7538,13.82736,0.0191688,0.38408485,153.8940,06/03.0/2024,2000,g  5.5,4.0
# From MPEC 2023-J29
167P/CINEOS,e,19.0848,295.8048,344.6828,16.25863,0.0150341,0.26823596,127.0660,06/03.0/2024,2000,g  9.5,2.0
# From MPEC 2023-J29
168P/Hergenrother,e,21.6023,355.4137,15.0824,3.586835,0.1450898,0.62150196,255.2346,06/03.0/2024,2000,g 15.5,4.0
# From MPEC 2023-J95
169P/NEAT,e,11.2931,176.0885,218.0875,2.603390,0.2346363,0.76826563,162.8906,06/03.0/2024,2000,g 16.0,2.0
# From MPEC 2024-GJ3
170P/Christensen,e,10.1158,142.6919,225.0828,4.204124,0.1143381,0.30550087,47.1826,06/03.0/2024,2000,g 12.0,4.0
# From MPC102102
171P/Spahr,e,21.9502,101.6995,347.0677,3.552466,0.1472005,0.50261805,289.4824,06/03.0/2024,2000,g 13.5,4.0
# From MPEC 2024-KD0
172P/Yeung,e,11.2250,30.8783,209.0175,4.220750,0.1136631,0.20453773,301.0966,06/03.0/2024,2000,g 13.0,4.0
# From MPEC 2023-N01
173P/Mueller,e,16.4910,100.3547,29.1962,5.712828,0.0721817,0.26206654,64.9021,06/03.0/2024,2000,g  7.5,4.0
# From MPC 92985
174P/Echeclus,e,4.3428,173.3028,163.4435,10.75627,0.0279391,0.45580060,92.9755,06/03.0/2024,2000,g  9.4,2.0
# From MPC114608
175P/Hergenrother,e,4.9139,110.0549,75.1119,3.675314,0.1398822,0.37931443,245.0839,06/03.0/2024,2000,g 14.0,4.0
# From MPC 89015
176P/LINEAR,e,0.2313,345.6316,34.4486,3.194482,0.1726249,0.19220465,96.8200,06/03.0/2024,2000,g 15.1,2.0
# From MPEC 2020-L06
177P/Barnard,e,31.0417,271.9374,60.6409,24.51674,0.0081191,0.95465348,52.6293,06/03.0/2024,2000,g 15.0,4.0
# From MPEC 2021-F20
178P/Hug-Bell,e,11.0904,102.7956,297.9313,3.632791,0.1423454,0.48251553,201.5819,06/03.0/2024,2000,g 14.6,4.0
# From MPEC 2024-EF7
179P/Jedicke,e,19.8931,115.5141,297.1187,5.935190,0.0681635,0.30576980,49.9886,06/03.0/2024,2000,g  2.5,8.0
# From MPEC 2024-F34
180P/NEAT,e,16.8615,84.5597,94.6415,3.868350,0.1295434,0.35359367,42.3473,06/03.0/2024,2000,g 11.0,4.0
# From MPC 89012
181P/Shoemaker-Levy,e,17.4822,35.4230,336.2918,3.877872,0.1290666,0.70026754,113.1043,06/03.0/2024,2000,g 11.5,4.0
# From MPEC 2014-J10
182P/LONEOS,e,16.2320,72.4502,54.2046,2.949357,0.1945867,0.66361700,146.4410,06/03.0/2024,2000,g 18.0,4.0
# From MPEC 2023-A50
183P/Korlevic-Juric,e,18.7953,3.8234,164.4346,4.691550,0.0969906,0.10312102,241.9970,06/03.0/2024,2000,g 12.5,2.0
# From MPEC 2020-W26
184P/Lovas,e,4.5726,173.2754,186.5606,3.799375,0.1330871,0.55036917,175.1271,06/03.0/2024,2000,g 13.5,4.0
# From MPEC 2024-F91
185P/Petriew,e,14.0144,214.1153,181.9008,3.098704,0.1806899,0.69967851,58.9248,06/03.0/2024,2000,g 15.0,4.0
# From MPEC 2022-X67
186P/Garradd,e,28.6265,326.0925,268.9852,4.851848,0.0922239,0.12423989,183.3006,06/03.0/2024,2000,g  7.5,4.0
# From MPEC 2020-SI8
187P/LINEAR,e,13.6522,109.8465,131.1915,4.558837,0.1012565,0.15421769,224.2413,06/03.0/2024,2000,g  9.0,4.0
# From MPEC 2023-J29
188P/LINEAR-Mueller,e,10.5237,358.9352,26.7590,4.367619,0.1079784,0.41691955,286.6789,06/03.0/2024,2000,g 11.5,4.0
# From MPEC 2022-QD9
189P/NEAT,e,20.0957,281.6724,16.2518,2.942769,0.1952404,0.58930504,125.7622,06/03.0/2024,2000,g 19.0,4.0
# From MPEC 2024-KD0
190P/Mueller,e,2.1747,335.5029,50.5107,4.226972,0.1134123,0.52220800,336.8511,06/03.0/2024,2000,g 13.0,4.0
# From MPEC 2022-X67
191P/McNaught,e,8.8390,98.1899,284.2428,3.639620,0.1419449,0.38562946,166.1402,06/03.0/2024,2000,g 13.0,4.0
# From MPC 75724
192P/Shoemaker-Levy,e,24.5849,51.6550,313.0465,6.461222,0.0600112,0.77334416,0.5778,06/03.0/2024,2000,g 15.0,4.0
# From MPEC 2024-JU4
193P/LINEAR-NEAT,e,10.6834,335.1879,8.1360,3.578330,0.1456074,0.39307523,147.5375,06/03.0/2024,2000,g 14.0,4.0
# From MPEC 2024-GJ3
194P/LINEAR,e,11.8058,349.5253,128.5679,4.120079,0.1178544,0.56321641,14.1150,06/03.0/2024,2000,g 16.0,4.0
# From MPEC 2024-GJ3
195P/Hill,e,36.4242,243.1131,250.1659,6.474167,0.0598313,0.31358977,334.5762,06/03.0/2024,2000,g  8.5,4.0
# From MPEC 2024-GJ3
196P/Tichy,e,19.3008,24.1161,12.0928,3.804636,0.1328111,0.42790761,77.3809,06/03.0/2024,2000,g 13.5,4.0
# From MPC 94676
197P/LINEAR,e,25.6384,66.2447,189.2331,2.881450,0.2015057,0.62883189,109.3404,06/03.0/2024,2000,g 16.5,2.0
# From NK 1596
198P/ODAS,e,1.3388,358.2033,69.2932,3.594217,0.1446431,0.44477504,288.5936,06/03.0/2024,2000,g  9.0,4.0
# From MPEC 2024-GJ3
199P/Shoemaker,e,24.9387,92.3486,191.7713,5.877540,0.0691689,0.50481607,20.7815,06/03.0/2024,2000,g 10.0,4.0
# From MPEC 2022-C56
200P/Larsen,e,12.0964,234.8040,134.3712,4.950371,0.0894844,0.33192838,158.3830,06/03.0/2024,2000,g  9.0,4.0
# From MPC 93588
201P/LONEOS,e,5.7396,41.5388,19.7694,3.354760,0.1604028,0.63759168,176.8642,06/03.0/2024,2000,g 14.0,4.0
# From MPEC 2023-XP6
202P/Scotti,e,2.1416,177.3117,274.4947,4.103009,0.1185906,0.25184654,1.9679,06/03.0/2024,2000,g 13.5,4.0
# From MPEC 2021-S45
203P/Korlevic,e,2.9744,290.2487,154.8472,4.668587,0.0977070,0.31628349,151.4231,06/03.0/2024,2000,g 14.5,2.0
# From MPEC 2024-JU4
204P/LINEAR-NEAT,e,6.5966,108.4821,356.6921,3.583528,0.1452907,0.48816251,81.9438,06/03.0/2024,2000,g 14.0,4.0
# From MPEC 2023_O39
205P/Giacobini,e,15.3042,179.6134,154.1830,3.542643,0.1478131,0.56750525,128.8507,06/03.0/2024,2000,g 13.0,4.0
# From MPC 75725
206P/Barnard-Boattini,e,33.6329,202.3517,189.5559,3.490995,0.1511055,0.55141632,179.2087,06/03.0/2024,2000,g 19.0,4.0
# From MPEC 2024-KD0
207P/NEAT,e,10.2012,198.1558,272.9942,3.883969,0.1287628,0.75842487,15.8611,06/03.0/2024,2000,g 16.0,4.0
# From MPEC 2022-K19
208P/McMillan,e,4.4123,36.4000,310.6183,4.038389,0.1214484,0.37383778,350.0497,06/03.0/2024,2000,g 12.5,4.0
# From MPEC 2024-KD0
209P/LINEAR,e,21.2825,62.7697,152.4944,2.958482,0.1936870,0.67401692,351.9625,06/03.0/2024,2000,g 17.0,2.0
# From MPC105242
210P/Christensen,e,10.2800,93.8239,345.8992,3.162004,0.1752914,0.83401963,265.7460,06/03.0/2024,2000,g 13.5,4.0
# From MPEC 2024-JU4
